HAWK-A                  
1 43765U 18099H   26068.67628545  .00008617  00000+0  36104-3 0  9995
2 43765  97.4051 122.2425 0034260 275.5523  84.1807 15.23231043397949
STARLINK-30842          
1 58357U 23177G   26068.06814281  .00014531  00000+0  59008-3 0  9998
2 58357  42.9998 339.3436 0001353 241.6779 118.3935 15.24412214128300
